0 SPOT 3
1 22823U 93061A   13282.71827462  .00000058  00000-0  48661-4 0  5155
2 22823 098.7671 226.4300 0017576 153.9575 266.9400 14.18917843 37569
0 SPOT 3
1 22823U 93061A   13283.98383649  .00000061  00000-0  50372-4 0  5166
2 22823 098.7673 227.6816 0017632 150.4548 251.4320 14.18918059 37741
0 SPOT 3
1 22823U 93061A   13285.47765721  .00000022  00000-0  31375-4 0  5177
2 22823 098.7676 229.1588 0017716 146.2335 321.9569 14.18918272 37955
0 SPOT 3
1 22823U 93061A   13286.80200527  .00000040  00000-0  40018-4 0  5188
2 22823 098.7680 230.4684 0017771 142.5702 246.7279 14.18918479 38143
0 SPOT 3
1 22823U 93061A   13287.94166380  .00000085  00000-0  61977-4 0  5199
2 22823 098.7685 231.5955 0017774 139.6074 307.9168 14.18918934 38304
0 SPOT 3
1 22823U 93061A   13289.43418212  .00000075  00000-0  56865-4 0  5200
2 22823 098.7688 233.0715 0017832 135.5389 011.6485 14.18919342 38515
0 SPOT 3
1 22823U 93061A   13290.48960968  .00000094  00000-0  66016-4 0  5218
2 22823 098.7690 234.1154 0017867 132.6542 002.7439 14.18919530 38669
0 SPOT 3
1 22823U 93061A   13291.81321270  .00000094  00000-0  65913-4 0  5229
2 22823 098.7692 235.4246 0017926 129.0124 283.6955 14.18919695 38855
0 SPOT 3
1 22823U 93061A   13292.93934660  .00000095  00000-0  66360-4 0  5235
2 22823 098.7693 236.5385 0017956 125.9664 275.9254 14.18919902 39015
0 SPOT 3
1 22823U 93061A   13294.50455756  .00000081  00000-0  59814-4 0  5246
2 22823 098.7694 238.0868 0018012 121.6326 351.0403 14.18920210 39231
0 SPOT 3
1 22823U 93061A   13295.83270720  .00000102  00000-0  69678-4 0  5253
2 22823 098.7694 239.4007 0017999 118.1477 295.0525 14.18920619 39428
